     2.11           N: GPS NAV DATA                         RINEX VERSION / TYPE
teqc  2019Feb25                         20221121 12:24:39UTCPGM / RUN BY / DATE
OSX ker:10.11.6|Core i5|gcc 4.3 -m64|OSX ker:10.10+|=+      COMMENT
    4.6566D-09  1.4901D-08 -5.9605D-08 -1.1921D-07          ION ALPHA
    8.1920D+04  9.8304D+04 -6.5536D+04 -5.2429D+05          ION BETA
   -1.862645149231D-09-7.993605777301D-15   147456     1538 DELTA-UTC: A0,A1,T,W
                                                            END OF HEADER
 3 09  6 29  0  0  0.0 4.129610024393D-04 5.115907697473D-12 0.000000000000D+00
    9.700000000000D+01-2.681250000000D+01 5.547373927534D-09 1.080091292492D+00
   -1.166015863419D-06 1.199402369093D-02 1.016259193420D-05 5.153639562607D+03
    8.640000000000D+04-1.024454832077D-07-2.183167362827D+00 1.955777406693D-07
    9.262420263611D-01 1.692187500000D+02 9.075662298335D-01-8.631073804583D-09
   -3.235849071817D-10 1.000000000000D+00 1.538000000000D+03 0.000000000000D+00
    2.800000000000D+00 0.000000000000D+00-4.190951585770D-09 9.700000000000D+01
    7.921800000000D+04 4.000000000000D+00
 6 09  6 29  0  0  0.0 1.764469780028D-04 1.216449163621D-11 0.000000000000D+00
    6.900000000000D+01-1.740625000000D+01 5.243432695733D-09-2.790928192470D+00
   -8.028000593185D-07 5.994969513267D-03 9.985640645027D-06 5.153702955246D+03
    8.640000000000D+04 6.891787052155D-08-2.115302050387D+00 1.788139343262D-07
    9.336690507893D-01 1.709062500000D+02-1.328332762711D+00-8.206056100889D-09
   -1.550064566411D-10 1.000000000000D+00 1.538000000000D+03 0.000000000000D+00
    2.000000000000D+00 0.000000000000D+00-4.656612873077D-09 6.900000000000D+01
    7.921800000000D+04 4.000000000000D+00
16 09  6 29  0  0  0.0 3.769388422370D-05-3.524291969370D-12 0.000000000000D+00
    8.900000000000D+01-4.959375000000D+01 4.731625662630D-09-2.734779938059D+00
   -2.445653080940D-06 5.357366171665D-03 6.295740604401D-06 5.153569112778D+03
    8.640000000000D+04-1.154839992523D-07-3.093282247576D+00 2.048909664154D-08
    9.690450563648D-01 2.640312500000D+02-3.265135312963D-01-8.060335745337D-09
   -2.071514858337D-11 1.000000000000D+00 1.538000000000D+03 0.000000000000D+00
    2.000000000000D+00 0.000000000000D+00-9.778887033463D-09 8.900000000000D+01
    7.921800000000D+04 4.000000000000D+00
21 09  6 29  0  0  0.0 5.728565156460D-06-2.160049916711D-12 0.000000000000D+00
    8.600000000000D+01 6.153125000000D+01 5.078425822534D-09-1.260723472639D+00
    3.110617399216D-06 1.542619580869D-02 7.305294275284D-06 5.153605445862D+03
    8.640000000000D+04 3.278255462646D-07-1.003475727203D+00-1.564621925354D-07
    9.336713080719D-01 2.239687500000D+02-2.585866376125D+00-8.301417215920D-09
    3.571577341961D-11 1.000000000000D+00 1.538000000000D+03 0.000000000000D+00
    2.000000000000D+00 0.000000000000D+00-1.210719347000D-08 8.600000000000D+01
    7.921800000000D+04 4.000000000000D+00
19 09  6 29  0  0  0.0 2.090586349368D-05-1.364242052659D-12 0.000000000000D+00
    6.600000000000D+01-9.718750000000D+00 4.679123475703D-09 1.820834197510D+00
   -2.160668373108D-07 5.714823724702D-03 1.077167689800D-05 5.153626300812D+03
    8.640000000000D+04 1.620501279831D-07-1.995152866491D+00 5.587935447693D-08
    9.572230090948D-01 1.661562500000D+02-3.391883910494D-01-8.041406385425D-09
   -3.064413359402D-10 1.000000000000D+00 1.538000000000D+03 0.000000000000D+00
    2.000000000000D+00 0.000000000000D+00-1.443549990654D-08 6.600000000000D+01
    7.921800000000D+04 4.000000000000D+00
10 09  6 29  0  0  0.0-1.823296770453D-05-5.684341886081D-13 0.000000000000D+00
    7.200000000000D+01 1.093750000000D+01 4.682695053045D-09 2.355314326993D+00
    4.116445779800D-07 8.568220539019D-03 4.811212420464D-06 5.153624170303D+03
    8.640000000000D+04-4.284083843231D-08 4.961282296179D-02-7.264316082001D-08
    9.581517879879D-01 2.872812500000D+02 6.263355838826D-01-8.277487647728D-09
   -2.021512775550D-10 1.000000000000D+00 1.538000000000D+03 0.000000000000D+00
    2.000000000000D+00 0.000000000000D+00-2.793967723846D-09 7.200000000000D+01
    7.921800000000D+04 4.000000000000D+00
24 09  6 29  0  0  0.0 2.004676498473D-04 2.955857780762D-12 0.000000000000D+00
    1.320000000000D+02 6.321875000000D+01 4.714124933654D-09-2.623187034315D+00
    3.106892108917D-06 6.659511826001D-03 7.869675755501D-06 5.153676622391D+03
    8.640000000000D+04-4.470348358154D-08-9.707903790760D-01 9.313225746155D-08
    9.503192616860D-01 2.240000000000D+02-6.501292661849D-01-8.096051518757D-09
   -4.821629411647D-11 1.000000000000D+00 1.538000000000D+03 0.000000000000D+00
    4.000000000000D+00 0.000000000000D+00-1.396983861923D-09 1.320000000000D+02
    7.921800000000D+04 4.000000000000D+00
 8 09  6 29  0  0  0.0-2.095708623528D-04-1.477928890381D-12 0.000000000000D+00
    5.700000000000D+01 9.781250000000D+00 4.002309569401D-09-1.017663882083D+00
    2.477318048477D-07 1.067396427970D-02 7.512047886848D-06 5.153638435364D+03
    8.640000000000D+04 6.146728992462D-08 2.181837726825D+00-1.527369022369D-07
    9.889875366035D-01 2.462812500000D+02 2.995623451284D+00-7.902472026823D-09
    5.935961542339D-10 1.000000000000D+00 1.538000000000D+03 0.000000000000D+00
    2.000000000000D+00 0.000000000000D+00-3.725290298462D-09 5.700000000000D+01
    7.921800000000D+04 4.000000000000D+00
13 09  6 29  0  0  0.0 3.003850579262D-04 7.958078640513D-13 0.000000000000D+00
    7.900000000000D+01-2.806250000000D+01 3.475144753728D-09 2.000152043778D+00
   -1.410022377968D-06 4.157815012150D-03 9.680166840553D-06 5.153692575455D+03
    8.640000000000D+04 1.136213541031D-07 1.131332379849D+00-3.539025783539D-08
    9.947068748140D-01 2.093125000000D+02 1.606969290641D+00-7.599959425958D-09
   -5.357366012941D-12 1.000000000000D+00 1.538000000000D+03 0.000000000000D+00
    2.000000000000D+00 0.000000000000D+00-1.117587089539D-08 7.900000000000D+01
    7.921800000000D+04 4.000000000000D+00
18 09  6 29  0  0  0.0-4.431325942278D-05 3.183231456205D-12 0.000000000000D+00
    6.300000000000D+01 1.250000000000D+00 4.845558979838D-09-2.540882808208D+00
    5.215406417847D-08 1.058856304735D-02 4.963949322701D-06 5.153606775284D+03
    8.640000000000D+04 4.656612873077D-08 5.457246196209D-02-1.341104507446D-07
    9.421884229811D-01 2.739062500000D+02-2.412269613329D+00-8.262129865158D-09
   -1.010756387775D-10 1.000000000000D+00 1.538000000000D+03 0.000000000000D+00
    2.000000000000D+00 0.000000000000D+00-1.071020960808D-08 6.300000000000D+01
    8.197200000000D+04 4.000000000000D+00
15 09  6 29  0  0  0.0-3.046239726245D-04-2.842170943040D-12 0.000000000000D+00
    4.000000000000D+01-2.881250000000D+01 4.420541276145D-09 2.065810665718D+00
   -1.570209860802D-06 1.455781864934D-03 8.173286914825D-06 5.153632404327D+03
    8.640000000000D+04-4.656612873077D-08 1.058117949877D+00-2.048909664154D-08
    9.562103698858D-01 2.196250000000D+02-4.661186405809D-01-8.057121325729D-09
   -6.178828801592D-11 1.000000000000D+00 1.538000000000D+03 0.000000000000D+00
    2.000000000000D+00 0.000000000000D+00-9.778887033463D-09 4.000000000000D+01
    8.302200000000D+04 4.000000000000D+00
22 09  6 29  0  0  0.0 1.965542323887D-04-9.094947017729D-13 0.000000000000D+00
    2.200000000000D+01 3.843750000000D+00 4.946991776350D-09 2.713186295831D+00
    1.844018697739D-07 5.110998172313D-03 4.876405000687D-06 5.153658227921D+03
    8.640000000000D+04 5.960464477539D-08 6.018910624930D-02-1.862645149231D-08
    9.398532560892D-01 2.741562500000D+02-1.893210252538D+00-8.346061932694D-09
   -1.828647599084D-10 1.000000000000D+00 1.538000000000D+03 0.000000000000D+00
    2.000000000000D+00 0.000000000000D+00-1.769512891769D-08 2.200000000000D+01
    8.449200000000D+04 4.000000000000D+00
28 09  6 29  0  0  0.0-2.570776268840D-05-1.136868377216D-13 0.000000000000D+00
    3.900000000000D+01-4.840625000000D+01 4.751269338011D-09 2.957540988745D+00
   -2.570450305939D-06 1.491435465869D-02 5.818903446198D-06 5.153643531799D+03
    8.640000000000D+04 8.381903171539D-08-3.085143909953D+00-2.291053533554D-07
    9.672445889567D-01 2.690937500000D+02-2.022565380949D+00-7.965331788041D-09
   -6.750281176306D-11 1.000000000000D+00 1.538000000000D+03 0.000000000000D+00
    2.000000000000D+00 0.000000000000D+00-1.071020960808D-08 3.900000000000D+01
    8.449200000000D+04 4.000000000000D+00
11 09  6 29  0  0  0.0-8.427072316408D-06-1.591615728103D-12 0.000000000000D+00
    3.700000000000D+01 6.831250000000D+01 6.276690020762D-09-4.726060663739D-01
    3.444030880928D-06 9.448423748836D-03 8.467584848404D-06 5.153691150665D+03
    8.640000000000D+04 5.401670932770D-08-1.236533942259D+00 1.788139343262D-07
    8.890112835055D-01 1.752187500000D+02 7.007204814435D-01-9.070734975378D-09
   -4.178745490094D-11 1.000000000000D+00 1.538000000000D+03 0.000000000000D+00
    2.000000000000D+00 0.000000000000D+00-1.164153218269D-08 3.700000000000D+01
    8.599200000000D+04 4.000000000000D+00
